{"type": "FeatureCollection", "features": [ {"type": "Feature", "properties": {"norad_id": 35139, "name": "FENGYUN 1C DEB", "group": "fengyun-1c-debris", "lat": -79.72634252134019, "lon": 52.20965126536225, "alt_km": 780.5333829207539, "timestamp": "2025-12-16T15:45:51.333484+00:00", "meta": {"OBJECT_NAME": "FENGYUN 1C DEB", "OBJECT_ID": "1999-025DLT", "EPOCH": "2025-11-29T06:46:18.583392", "MEAN_MOTION": 14.21054019, "ECCENTRICITY": 0.00685814, "INCLINATION": 98.5841, "RA_OF_ASC_NODE": 338.8823, "ARG_OF_PERICENTER": 336.9878, "MEAN_ANOMALY": 22.8231, "EPHEMERIS_TYPE": 0, "CLASSIFICATION_TYPE": "U", "NORAD_CAT_ID": 35139, "ELEMENT_SET_NO": 999, "REV_AT_EPOCH": 63962, "BSTAR": 0.00042081079, "MEAN_MOTION_DOT": 8.92e-06, "MEAN_MOTION_DDOT": 0}, "tle": {"line1": "1 35139U 99025DLT 25333.28215953  .00000892  00000+0  42081-3 0  9993", "line2": "2 35139  98.5841 338.8823 0068581 336.9878  22.8231 14.21054019639626"}}, "geometry": {"type": "Point", "coordinates": [52.20965126536225, -79.72634252134019]}}, {"type": "Feature", "properties": {"norad_id": 35140, "name": "FENGYUN 1C DEB", "group": "fengyun-1c-debris", "lat": 9.874492995513107, "lon": -29.615641752637806, "alt_km": 697.9212397726042, "timestamp": "2025-12-16T15:45:51.333494+00:00", "meta": {"OBJECT_NAME": "FENGYUN 1C DEB", "OBJECT_ID": "1999-025DLU", "EPOCH": "2025-12-14T04:35:17.926080", "MEAN_MOTION": 14.21349423, "ECCENTRICITY": 0.02906296, "INCLINATION": 98.4433, "RA_OF_ASC_NODE": 329.5041, "ARG_OF_PERICENTER": 322.4095, "MEAN_ANOMALY": 35.7077, "EPHEMERIS_TYPE": 0, "CLASSIFICATION_TYPE": "U", "NORAD_CAT_ID": 35140, "ELEMENT_SET_NO": 999, "REV_AT_EPOCH": 87299, "BSTAR": 0.00031148467, "MEAN_MOTION_DOT": 9.92e-06, "MEAN_MOTION_DDOT": 0}, "tle": {"line1": "1 35140U 99025DLU 25348.19117970  .00000992  00000+0  31148-3 0  9994", "line2": "2 35140  98.4433 329.5041 0290629 322.4095  35.7077 14.21349423872990"}}, "geometry": {"type": "Point", "coordinates": [-29.615641752637806, 9.874492995513107]}}, {"type": "Feature", "properties": {"norad_id": 35142, "name": "FENGYUN 1C DEB", "group": "fengyun-1c-debris", "lat": -46.483341702257555, "lon": 153.04918293372864, "alt_km": 861.4515635313692, "timestamp": "2025-12-16T15:45:51.333505+00:00", "meta": {"OBJECT_NAME": "FENGYUN 1C DEB", "OBJECT_ID": "1999-025DLW", "EPOCH": "2025-12-10T17:57:11.594304", "MEAN_MOTION": 13.90505391, "ECCENTRICITY": 0.01075768, "INCLINATION": 99.0447, "RA_OF_ASC_NODE": 336.9569, "ARG_OF_PERICENTER": 219.5001, "MEAN_ANOMALY": 324.8218, "EPHEMERIS_TYPE": 0, "CLASSIFICATION_TYPE": "U", "NORAD_CAT_ID": 35142, "ELEMENT_SET_NO": 999, "REV_AT_EPOCH": 85661, "BSTAR": 0.00028188701, "MEAN_MOTION_DOT": 3.24e-06, "MEAN_MOTION_DDOT": 0}, "tle": {"line1": "1 35142U 99025DLW 25344.74805086  .00000324  00000+0  28189-3 0  9995", "line2": "2 35142  99.0447 336.9569 0107576 219.5001 324.8218 13.90505391856615"}}, "geometry": {"type": "Point", "coordinates": [153.04918293372864, -46.483341702257555]}}, {"type": "Feature", "properties": {"norad_id": 35144, "name": "FENGYUN 1C DEB", "group": "fengyun-1c-debris", "lat": 15.283119640388005, "lon": 103.79621595417119, "alt_km": 679.4023708233117, "timestamp": "2025-12-16T15:45:51.333515+00:00", "meta": {"OBJECT_NAME": "FENGYUN 1C DEB", "OBJECT_ID": "1999-025DLY", "EPOCH": "2025-12-15T03:29:25.584864", "MEAN_MOTION": 14.59259684, "ECCENTRICITY": 0.00266192, "INCLINATION": 98.6997, "RA_OF_ASC_NODE": 104.611, "ARG_OF_PERICENTER": 353.8009, "MEAN_ANOMALY": 6.2856, "EPHEMERIS_TYPE": 0, "CLASSIFICATION_TYPE": "U", "NORAD_CAT_ID": 35144, "ELEMENT_SET_NO": 999, "REV_AT_EPOCH": 65248, "BSTAR": 0.0015089834, "MEAN_MOTION_DOT": 7.114e-05, "MEAN_MOTION_DDOT": 0}, "tle": {"line1": "1 35144U 99025DLY 25349.14543501  .00007114  00000+0  15090-2 0  9997", "line2": "2 35144  98.6997 104.6110 0026619 353.8009   6.2856 14.59259684652487"}}, "geometry": {"type": "Point", "coordinates": [103.79621595417119, 15.283119640388005]}}, {"type": "Feature", "properties": {"norad_id": 35147, "name": "FENGYUN 1C DEB", "group": "fengyun-1c-debris", "lat": 57.15767656154623, "lon": 49.59898014322153, "alt_km": 653.288310871767, "timestamp": "2025-12-16T15:45:51.333524+00:00", "meta": {"OBJECT_NAME": "FENGYUN 1C DEB", "OBJECT_ID": "1999-025DMB", "EPOCH": "2025-12-14T11:22:48.077184", "MEAN_MOTION": 14.74368233, "ECCENTRICITY": 0.00274446, "INCLINATION": 99.4866, "RA_OF_ASC_NODE": 62.0604, "ARG_OF_PERICENTER": 193.476, "MEAN_ANOMALY": 166.5714, "EPHEMERIS_TYPE": 0, "CLASSIFICATION_TYPE": "U", "NORAD_CAT_ID": 35147, "ELEMENT_SET_NO": 999, "REV_AT_EPOCH": 74330, "BSTAR": 0.0027922421, "MEAN_MOTION_DOT": 0.00018603, "MEAN_MOTION_DDOT": 0}, "tle": {"line1": "1 35147U 99025DMB 25348.47416756  .00018603  00000+0  27922-2 0  9998", "line2": "2 35147  99.4866  62.0604 0027444 193.4760 166.5714 14.74368233743301"}}, "geometry": {"type": "Point", "coordinates": [49.59898014322153, 57.15767656154623]}}, {"type": "Feature", "properties": {"norad_id": 35152, "name": "FENGYUN 1C DEB", "group": "fengyun-1c-debris", "lat": -29.661806934443224, "lon": -12.192111907058996, "alt_km": 1111.984714858646, "timestamp": "2025-12-16T15:45:51.333534+00:00", "meta": {"OBJECT_NAME": "FENGYUN 1C DEB", "OBJECT_ID": "1999-025DMG", "EPOCH": "2025-12-09T06:32:50.767584", "MEAN_MOTION": 13.76426124, "ECCENTRICITY": 0.019481, "INCLINATION": 99.8191, "RA_OF_ASC_NODE": 165.8523, "ARG_OF_PERICENTER": 24.4192, "MEAN_ANOMALY": 336.6036, "EPHEMERIS_TYPE": 0, "CLASSIFICATION_TYPE": "U", "NORAD_CAT_ID": 35152, "ELEMENT_SET_NO": 999, "REV_AT_EPOCH": 62145, "BSTAR": 0.0008876, "MEAN_MOTION_DOT": 9.5e-06, "MEAN_MOTION_DDOT": 0}, "tle": {"line1": "1 35152U 99025DMG 25343.27280981  .00000950  00000+0  88760-3 0  9990", "line2": "2 35152  99.8191 165.8523 0194810  24.4192 336.6036 13.76426124621451"}}, "geometry": {"type": "Point", "coordinates": [-12.192111907058996, -29.661806934443224]}}, {"type": "Feature", "properties": {"norad_id": 35153, "name": "FENGYUN 1C DEB", "group": "fengyun-1c-debris", "lat": -1.8909379701282039, "lon": -116.86187874766009, "alt_km": 614.8600779261851, "timestamp": "2025-12-16T15:45:51.333544+00:00", "meta": {"OBJECT_NAME": "FENGYUN 1C DEB", "OBJECT_ID": "1999-025DMH", "EPOCH": "2025-12-15T10:26:34.253088", "MEAN_MOTION": 14.73752008, "ECCENTRICITY": 0.01711864, "INCLINATION": 98.9027, "RA_OF_ASC_NODE": 241.501, "ARG_OF_PERICENTER": 74.8151, "MEAN_ANOMALY": 287.1914, "EPHEMERIS_TYPE": 0, "CLASSIFICATION_TYPE": "U", "NORAD_CAT_ID": 35153, "ELEMENT_SET_NO": 999, "REV_AT_EPOCH": 97257, "BSTAR": 0.00027078578, "MEAN_MOTION_DOT": 2.167e-05, "MEAN_MOTION_DDOT": 0}, "tle": {"line1": "1 35153U 99025DMH 25349.43511867  .00002167  00000+0  27079-3 0  9993", "line2": "2 35153  98.9027 241.5010 0171186  74.8151 287.1914 14.73752008972576"}}, "geometry": {"type": "Point", "coordinates": [-116.86187874766009, -1.8909379701282039]}}, {"type": "Feature", "properties": {"norad_id": 35154, "name": "FENGYUN 1C DEB", "group": "fengyun-1c-debris", "lat": -69.28572957142981, "lon": -93.66300082525586, "alt_km": 934.346960150744, "timestamp": "2025-12-16T15:45:51.333554+00:00", "meta": {"OBJECT_NAME": "FENGYUN 1C DEB", "OBJECT_ID": "1999-025DMJ", "EPOCH": "2025-12-14T01:39:24.585984", "MEAN_MOTION": 14.18900379, "ECCENTRICITY": 0.01792994, "INCLINATION": 99.4217, "RA_OF_ASC_NODE": 109.6332, "ARG_OF_PERICENTER": 38.7298, "MEAN_ANOMALY": 322.6573, "EPHEMERIS_TYPE": 0, "CLASSIFICATION_TYPE": "U", "NORAD_CAT_ID": 35154, "ELEMENT_SET_NO": 999, "REV_AT_EPOCH": 64596, "BSTAR": 0.00037357522, "MEAN_MOTION_DOT": 8.63e-06, "MEAN_MOTION_DDOT": 0}, "tle": {"line1": "1 35154U 99025DMJ 25348.06903456  .00000863  00000+0  37358-3 0  9993", "line2": "2 35154  99.4217 109.6332 0179299  38.7298 322.6573 14.18900379645960"}}, "geometry": {"type": "Point", "coordinates": [-93.66300082525586, -69.28572957142981]}}, {"type": "Feature", "properties": {"norad_id": 35155, "name": "FENGYUN 1C DEB", "group": "fengyun-1c-debris", "lat": 18.033257678020735, "lon": -0.622574312665048, "alt_km": 814.3102363776607, "timestamp": "2025-12-16T15:45:51.333564+00:00", "meta": {"OBJECT_NAME": "FENGYUN 1C DEB", "OBJECT_ID": "1999-025DMK", "EPOCH": "2025-12-13T11:32:29.448096", "MEAN_MOTION": 14.19285709, "ECCENTRICITY": 0.00260991, "INCLINATION": 98.5012, "RA_OF_ASC_NODE": 359.121, "ARG_OF_PERICENTER": 70.7543, "MEAN_ANOMALY": 289.6454, "EPHEMERIS_TYPE": 0, "CLASSIFICATION_TYPE": "U", "NORAD_CAT_ID": 35155, "ELEMENT_SET_NO": 999, "REV_AT_EPOCH": 72724, "BSTAR": 0.00090034288, "MEAN_MOTION_DOT": 1.854e-05, "MEAN_MOTION_DDOT": 0}, "tle": {"line1": "1 35155U 99025DMK 25347.48089639  .00001854  00000+0  90034-3 0  9998", "line2": "2 35155  98.5012 359.1210 0026099  70.7543 289.6454 14.19285709727245"}}, "geometry": {"type": "Point", "coordinates": [-0.622574312665048, 18.033257678020735]}}, {"type": "Feature", "properties": {"norad_id": 35156, "name": "FENGYUN 1C DEB", "group": "fengyun-1c-debris", "lat": -23.048580652492124, "lon": -19.266076638660152, "alt_km": 887.8124164141391, "timestamp": "2025-12-16T15:45:51.333574+00:00", "meta": {"OBJECT_NAME": "FENGYUN 1C DEB", "OBJECT_ID": "1999-025DML", "EPOCH": "2025-12-12T16:32:42.860544", "MEAN_MOTION": 14.10626157, "ECCENTRICITY": 0.00370025, "INCLINATION": 98.7527, "RA_OF_ASC_NODE": 333.1123, "ARG_OF_PERICENTER": 148.5895, "MEAN_ANOMALY": 211.7497, "EPHEMERIS_TYPE": 0, "CLASSIFICATION_TYPE": "U", "NORAD_CAT_ID": 35156, "ELEMENT_SET_NO": 999, "REV_AT_EPOCH": 64043, "BSTAR": 0.00049181464, "MEAN_MOTION_DOT": 8.41e-06, "MEAN_MOTION_DDOT": 0}, "tle": {"line1": "1 35156U 99025DML 25346.68938496  .00000841  00000+0  49181-3 0  9996", "line2": "2 35156  98.7527 333.1123 0037002 148.5895 211.7497 14.10626157640439"}}, "geometry": {"type": "Point", "coordinates": [-19.266076638660152, -23.048580652492124]}}]}